[
    {
        "Altitude(m)": 617719.777172108,
        "Argument of Periapsis(deg)": 0.0,
        "Eccentricity": 0.0,
        "Inclination(deg)": 60.0,
        "Latitude(deg)": -41.10265696876225,
        "Longitude(deg)": -24.90528976645093,
        "Mean Anomaly(deg)": -130.9091,
        "RAAN(deg)": 225.0,
        "Satellite Name": "Test1 1004",
        "Satellite Number": 1004,
        "Semi-Major Axis(m)": 6980739.136638005,
        "Time(s)": 0
    },
    {
        "Altitude(m)": 617911.3128523063,
        "Argument of Periapsis(deg)": 0.00010418945913296404,
        "Eccentricity": 0.0,
        "Inclination(deg)": 60.0,
        "Latitude(deg)": -41.56584829994248,
        "Longitude(deg)": -24.400882050862585,
        "Mean Anomaly(deg)": -130.28899385453815,
        "RAAN(deg)": 224.99957995086024,
        "Satellite Name": "Test1 1004",
        "Satellite Number": 1004,
        "Semi-Major Axis(m)": 6980739.136638005,
        "Time(s)": 10
    }
]